PHISAT 2                
1 60470U 24149C   26068.78834181  .00008925  00000+0  31421-3 0  9996
2 60470  97.3806 148.6498 0001175 168.6230 191.5037 15.29548631 86792
STARLINK-33797          
1 63448U 25069R   26068.46971127  .00033376  00000+0  11328-2 0  9994
2 63448  53.1596 143.3135 0001312  99.1189 260.9960 15.30232262 53321
